NORAD_CAT_ID,OBJECT_NAME,OBJECT_TYPE,EPOCH,MEAN_MOTION,ECCENTRICITY,INCLINATION,RA_OF_ASC_NODE,ARG_OF_PERICENTER,MEAN_ANOMALY,BSTAR,MEAN_MOTION_DOT,MEAN_MOTION_DDOT,TLE_LINE0,TLE_LINE1,TLE_LINE2,SEMIMAJOR_AXIS,PERIOD,APOGEE,PERIGEE,DECAYED
54054.0,STARLINK-5163,PAYLOAD,2022-12-19 08:12:35,15.08840617,0.0001738,53.2158,225.0688,45.3325,314.7809,-2.6499e-05,-7.1e-06,0.0,0 STARLINK-5163,1 54054U 22136D   22353.34208043 -.00000710  00000-0 -26499-4 0  9995,2 54054  53.2158 225.0688 0001738  45.3325 314.7809 15.08840617  9737,6917.879,95.438,540.946,538.5409999999998,0.0
54054.0,STARLINK-5163,PAYLOAD,2022-12-20 08:03:22,15.08840835,0.0001952,53.2155,220.6054,41.396,318.718,5.3307e-05,5.6e-06,0.0,0 STARLINK-5163,1 54054U 22136D   22354.33567754  .00000560  00000-0  53307-4 0  9991,2 54054  53.2155 220.6054 0001952  41.3960 318.7180 15.08840835  9403,6917.878000000002,95.438,541.0930000000002,538.3919999999998,0.0
54054.0,STARLINK-5163,PAYLOAD,2022-12-20 22:21:51,15.08836317,0.0001852,53.2159,217.9295,44.3252,315.7888,2.5271e-05,1.14e-06,0.0,0 STARLINK-5163,1 54054U 22136D   22354.93184114  .00000114  00000-0  25271-4 0  9996,2 54054  53.2159 217.9295 0001852  44.3252 315.7888 15.08836317  9973,6917.892,95.438,541.038,538.475,0.0
54054.0,STARLINK-5163,PAYLOAD,2022-12-21 01:32:38,15.08827173,0.0002115,53.2153,217.3366,43.6524,316.4635,-4.8278e-05,-1.056e-05,0.0,0 STARLINK-5163,1 54054U 22136D   22355.06433040 -.00001056  00000-0 -48278-4 0  9996,2 54054  53.2153 217.3366 0002115  43.6524 316.4635 15.08827173  9997,6917.92,95.438,541.248,538.321,0.0
54054.0,STARLINK-5163,PAYLOAD,2022-12-21 07:54:11,15.08823222,0.0001902,53.2146,216.1453,40.827,319.2864,-5.8939e-05,-1.226e-05,0.0,0 STARLINK-5163,1 54054U 22136D   22355.32929410 -.00001226  00000-0 -58939-4 0  9990,2 54054  53.2146 216.1453 0001902  40.8270 319.2864 15.08823222  9551,6917.932,95.439,541.112,538.481,0.0
54054.0,STARLINK-5163,PAYLOAD,2022-12-21 23:48:02,15.08832296,0.0001926,53.2156,213.1721,44.2828,315.8318,-4.934e-05,-1.073e-05,0.0,0 STARLINK-5163,1 54054U 22136D   22355.99169124 -.00001073  00000-0 -49340-4 0  9997,2 54054  53.2156 213.1721 0001926  44.2828 315.8318 15.08832296 10133,6917.904,95.438,541.101,538.437,0.0
54054.0,STARLINK-5163,PAYLOAD,2022-12-22 07:44:57,15.08822539,0.0001798,53.2146,211.6866,48.9275,311.1872,0.00016433,2.327e-05,0.0,0 STARLINK-5163,1 54054U 22136D   22356.32289175  .00002327  00000-0  16433-3 0  9991,2 54054  53.2146 211.6866 0001798  48.9275 311.1872 15.08822539  9703,6917.934,95.439,541.043,538.555,0.0
54054.0,STARLINK-5163,PAYLOAD,2022-12-22 14:06:30,15.08834849,0.0001768,53.2153,210.4961,46.8891,313.2249,-7.3038e-06,-4.04e-06,0.0,0 STARLINK-5163,1 54054U 22136D   22356.58784921 -.00000404  00000-0 -73038-5 0  9990,2 54054  53.2153 210.4961 0001768  46.8891 313.2249 15.08834849  9744,6917.896,95.438,540.984,538.538,0.0
54054.0,STARLINK-5163,PAYLOAD,2022-12-22 23:38:48,15.08836709,0.000179,53.2155,208.7134,51.1393,308.9759,7.4312e-05,8.95e-06,0.0,0 STARLINK-5163,1 54054U 22136D   22356.98528573  .00000895  00000-0  74312-4 0  9990,2 54054  53.2155 208.7134 0001790  51.1393 308.9759 15.08836709 10284,6917.89,95.438,540.994,538.5169999999998,0.0
54054.0,STARLINK-5163,PAYLOAD,2022-12-23 07:35:43,15.08845497,0.0001802,53.2158,207.2268,47.1783,312.9361,4.7794e-05,4.73e-06,0.0,0 STARLINK-5163,1 54054U 22136D   22357.31648091  .00000473  00000-0  47794-4 0  9992,2 54054  53.2158 207.2268 0001802  47.1783 312.9361 15.08845497 10335,6917.864000000001,95.437,540.975,538.482,0.0
54054.0,STARLINK-5163,PAYLOAD,2022-12-23 20:18:50,15.0883031,0.0001978,53.2166,204.8482,49.9827,310.1338,3.0643000000000005e-05,1.99e-06,0.0,0 STARLINK-5163,1 54054U 22136D   22357.84641403  .00000199  00000-0  30643-4 0  9990,2 54054  53.2166 204.8482 0001978  49.9827 310.1338 15.08830310  9934,6917.91,95.438,541.143,538.4069999999998,0.0
54054.0,STARLINK-5163,PAYLOAD,2022-12-23 23:29:36,15.08832811,0.0001957,53.2166,204.2534,49.6735,310.4428,2.6686e-06,-2.46e-06,0.0,0 STARLINK-5163,1 54054U 22136D   22357.97889396 -.00000246  00000-0  26686-5 0  9996,2 54054  53.2166 204.2534 0001957  49.6735 310.4428 15.08832811 10436,6917.901999999999,95.438,541.121,538.414,0.0
54054.0,STARLINK-5163,PAYLOAD,2022-12-24 07:26:32,15.08835527,0.0001952,53.2168,202.7665,49.6035,310.5127,1.1145e-05,-1.11e-06,0.0,0 STARLINK-5163,1 54054U 22136D   22358.31009265 -.00000111  00000-0  11145-4 0  9998,2 54054  53.2168 202.7665 0001952  49.6035 310.5127 15.08835527 10001,6917.894,95.438,541.109,538.409,0.0
54054.0,STARLINK-5163,PAYLOAD,2022-12-24 20:09:36,15.08843268,0.0001924,53.217,200.387,50.4769,309.6393,-3.9663e-06,-3.51e-06,0.0,0 STARLINK-5163,1 54054U 22136D   22358.84000804 -.00000351  00000-0 -39663-5 0  9999,2 54054  53.2170 200.3870 0001924  50.4769 309.6393 15.08843268 10565,6917.87,95.437,541.066,538.404,0.0
54054.0,STARLINK-5163,PAYLOAD,2022-12-24 23:20:22,15.08843876,0.0001941,53.2169,199.7923,50.4794,309.6369,2.641e-06,-2.46e-06,0.0,0 STARLINK-5163,1 54054U 22136D   22358.97248709 -.00000246  00000-0  26410-5 0  9999,2 54054  53.2169 199.7923 0001941  50.4794 309.6369 15.08843876 10108,6917.869000000002,95.437,541.076,538.391,0.0
54054.0,STARLINK-5163,PAYLOAD,2022-12-25 20:00:24,15.08833928,0.0001967,53.2167,195.9265,49.7317,310.3846,1.8616e-06,-2.59e-06,0.0,0 STARLINK-5163,1 54054U 22136D   22359.83361184 -.00000259  00000-0  18616-5 0  9991,2 54054  53.2167 195.9265 0001967  49.7317 310.3846 15.08833928 10716,6917.899,95.438,541.125,538.403,0.0
54054.0,STARLINK-5163,PAYLOAD,2022-12-26 13:29:38,15.08834261,0.0001951,53.2166,192.6553,47.4543,312.6614,-1.8871e-05,-5.88e-06,0.0,0 STARLINK-5163,1 54054U 22136D   22360.56225495 -.00000588  00000-0 -18871-4 0  9995,2 54054  53.2166 192.6553 0001951  47.4543 312.6614 15.08834261 10346,6917.898,95.438,541.113,538.413,0.0
54054.0,STARLINK-5163,PAYLOAD,2022-12-26 23:01:57,15.08838784,0.0001969,53.2162,190.8706,45.8619,314.2535,-2.6354e-05,-7.08e-06,0.0,0 STARLINK-5163,1 54054U 22136D   22360.95969324 -.00000708  00000-0 -26354-4 0  9993,2 54054  53.2162 190.8706 0001969  45.8619 314.2535 15.08838784 10880,6917.884,95.438,541.111,538.387,0.0
54054.0,STARLINK-5163,PAYLOAD,2022-12-27 11:45:02,15.0883957,0.0001972,53.2161,188.492,47.0436,313.0721,-1.2285e-05,-4.84e-06,0.0,0 STARLINK-5163,1 54054U 22136D   22361.48961235 -.00000484  00000-0 -12285-4 0  9994,2 54054  53.2161 188.4920 0001972  47.0436 313.0721 15.08839570 10489,6917.882,95.438,541.111,538.382,0.0
54054.0,STARLINK-5163,PAYLOAD,2022-12-28 13:11:12,15.08839575,0.0002005999999999,53.2169,183.7347,51.1893,308.9278,5.1971e-05,5.39e-06,0.0,0 STARLINK-5163,1 54054U 22136D   22362.54945067  .00000539  00000-0  51971-4 0  9991,2 54054  53.2169 183.7347 0002006  51.1893 308.9278 15.08839575 10643,6917.882,95.438,541.134,538.359,0.0
54054.0,STARLINK-5163,PAYLOAD,2022-12-29 05:05:04,15.08834181,0.0002004,53.2164,180.7614,49.0394,311.0771,-1.9074e-05,-5.92e-06,0.0,0 STARLINK-5163,1 54054U 22136D   22363.21185825 -.00000592  00000-0 -19074-4 0  9993,2 54054  53.2164 180.7614 0002004  49.0394 311.0771 15.08834181 11228,6917.898,95.438,541.15,538.377,0.0
54054.0,STARLINK-5163,PAYLOAD,2022-12-29 11:26:36,15.08836417,0.0002003,53.2164,179.5716,49.1331,310.9835,-1.3234e-05,-4.99e-06,0.0,0 STARLINK-5163,1 54054U 22136D   22363.47681712 -.00000499  00000-0 -13234-4 0  9995,2 54054  53.2164 179.5716 0002003  49.1331 310.9835 15.08836417 10781,6917.891,95.438,541.1419999999998,538.371,0.0
54054.0,STARLINK-5163,PAYLOAD,2022-12-30 04:55:51,15.08842784,0.0001959,53.2166,176.3007,49.3366,310.7796,-5.3272e-06,-3.73e-06,0.0,0 STARLINK-5163,1 54054U 22136D   22364.20545270 -.00000373  00000-0 -53272-5 0  9993,2 54054  53.2166 176.3007 0001959  49.3366 310.7796 15.08842784 11374,6917.871999999999,95.437,541.092,538.382,0.0
54054.0,STARLINK-5163,PAYLOAD,2022-12-30 11:17:23,15.08838418,0.0001965,53.2166,175.1109,49.8766,310.2398,7.5719e-05,9.17e-06,0.0,0 STARLINK-5163,1 54054U 22136D   22364.47041152  .00000917  00000-0  75719-4 0  9993,2 54054  53.2166 175.1109 0001965  49.8766 310.2398 15.08838418 10933,6917.885,95.438,541.11,538.391,0.0
54054.0,STARLINK-5163,PAYLOAD,2022-12-31 04:46:37,15.08848592,0.0002013,53.2167,171.8399,50.9345,309.1826,0.00013168,1.809e-05,0.0,0 STARLINK-5163,1 54054U 22136D   22365.19904142  .00001809  00000-0  13168-3 0  9990,2 54054  53.2167 171.8399 0002013  50.9345 309.1826 15.08848592 11522,6917.854,95.437,541.112,538.327,0.0
54054.0,STARLINK-5163,PAYLOAD,2022-12-31 11:08:09,15.08845594,0.000206,53.2168,170.6509,52.0889,308.0289,7.4635e-05,9e-06,0.0,0 STARLINK-5163,1 54054U 22136D   22365.46400425  .00000900  00000-0  74635-4 0  9993,2 54054  53.2168 170.6509 0002060  52.0889 308.0289 15.08845594 11082,6917.863,95.437,541.153,538.303,0.0
54054.0,STARLINK-5163,PAYLOAD,2022-12-31 17:29:42,15.08841796,0.0002088,53.217,169.4614,52.7637,307.3545,3.9212e-05,3.36e-06,0.0,0 STARLINK-5163,1 54054U 22136D   22365.72896717  .00000336  00000-0  39212-4 0  9990,2 54054  53.2170 169.4614 0002088  52.7637 307.3545 15.08841796 11128,6917.875,95.437,541.184,538.295,0.0
54054.0,STARLINK-5163,PAYLOAD,2023-01-01 04:37:24,15.08838597,0.0002003,53.2167,167.3794,52.7983,307.3192,-2.5452e-05,-6.93e-06,0.0,0 STARLINK-5163,1 54054U 22136D   23001.19265037 -.00000693  00000-0 -25452-4 0  9993,2 54054  53.2167 167.3794 0002003  52.7983 307.3192 15.08838597 11674,6917.885,95.438,541.135,538.364,0.0
54054.0,STARLINK-5163,PAYLOAD,2023-01-01 17:20:31,15.08822565,0.0002023,53.2172,164.9997,57.67100000000001,302.4478,1.504e-05,-4.9e-07,0.0,0 STARLINK-5163,1 54054U 22136D   23001.72258118 -.00000049  00000-0  15040-4 0  9990,2 54054  53.2172 164.9997 0002023  57.6710 302.4478 15.08822565 11279,6917.934,95.439,541.198,538.399,0.0
